{
  "type": "FeatureCollection",
  "features": [
    {
      "type": "Feature",
      "properties": {
        "name": "Abu Dhabi",
        "name_ar": "أبوظبي"
      },
      "geometry": {
        "type": "Polygon",
        "coordinates": [
          [
            [51.50, 24.00],
            [51.80, 24.20],
            [52.00, 24.50],
            [52.40, 24.60],
            [53.00, 24.50],
            [53.50, 24.40],
            [54.00, 24.30],
            [54.20, 24.50],
            [54.50, 24.60],
            [55.00, 24.70],
            [55.20, 24.90],
            [55.30, 25.10],
            [55.40, 25.30],
            [55.30, 25.50],
            [55.00, 25.60],
            [54.80, 25.80],
            [54.60, 26.00],
            [54.40, 26.20],
            [54.20, 26.40],
            [54.00, 26.50],
            [53.80, 26.60],
            [53.50, 26.80],
            [53.20, 27.00],
            [52.80, 27.20],
            [52.50, 27.40],
            [52.20, 27.60],
            [52.00, 27.80],
            [51.80, 28.00],
            [51.60, 28.20],
            [51.40, 28.40],
            [51.20, 28.60],
            [51.00, 28.80],
            [50.80, 29.00],
            [50.60, 29.20],
            [50.40, 29.40],
            [50.20, 29.60],
            [50.00, 29.80],
            [49.80, 30.00],
            [49.60, 30.20],
            [49.40, 30.40],
            [49.20, 30.60],
            [49.00, 30.80],
            [48.80, 31.00],
            [48.60, 31.20],
            [48.40, 31.40],
            [48.20, 31.60],
            [48.00, 31.80],
            [47.80, 32.00],
            [47.60, 32.20],
            [47.40, 32.40],
            [47.20, 32.60],
            [47.00, 32.80],
            [46.80, 33.00],
            [46.60, 33.20],
            [46.40, 33.40],
            [46.20, 33.60],
            [46.00, 33.80],
            [45.80, 34.00],
            [45.60, 34.20],
            [45.40, 34.40],
            [45.20, 34.60],
            [45.00, 34.80],
            [44.80, 35.00],
            [44.60, 35.20],
            [44.40, 35.40],
            [44.20, 35.60],
            [44.00, 35.80],
            [43.80, 36.00],
            [43.60, 36.20],
            [43.40, 36.40],
            [43.20, 36.60],
            [43.00, 36.80],
            [42.80, 37.00],
            [42.60, 37.20],
            [42.40, 37.40],
            [42.20, 37.60],
            [42.00, 37.80],
            [41.80, 38.00],
            [41.60, 38.20],
            [41.40, 38.40],
            [41.20, 38.60],
            [41.00, 38.80],
            [40.80, 39.00],
            [40.60, 39.20],
            [40.40, 39.40],
            [40.20, 39.60],
            [40.00, 39.80],
            [39.80, 40.00],
            [39.60, 40.20],
            [39.40, 40.40],
            [39.20, 40.60],
            [39.00, 40.80],
            [38.80, 41.00],
            [38.60, 41.20],
            [38.40, 41.40],
            [38.20, 41.60],
            [38.00, 41.80],
            [37.80, 42.00],
            [37.60, 42.20],
            [37.40, 42.40],
            [37.20, 42.60],
            [37.00, 42.80],
            [36.80, 43.00],
            [36.60, 43.20],
            [36.40, 43.40],
            [36.20, 43.60],
            [36.00, 43.80],
            [35.80, 44.00],
            [35.60, 44.20],
            [35.40, 44.40],
            [35.20, 44.60],
            [35.00, 44.80],
            [34.80, 45.00],
            [34.60, 45.20],
            [34.40, 45.40],
            [34.20, 45.60],
            [34.00, 45.80],
            [33.80, 46.00],
            [33.60, 46.20],
            [33.40, 46.40],
            [33.20, 46.60],
            [33.00, 46.80],
            [32.80, 47.00],
            [32.60, 47.20],
            [32.40, 47.40],
            [32.20, 47.60],
            [32.00, 47.80],
            [31.80, 48.00],
            [31.60, 48.20],
            [31.40, 48.40],
            [31.20, 48.60],
            [31.00, 48.80],
            [30.80, 49.00],
            [30.60, 49.20],
            [30.40, 49.40],
            [30.20, 49.60],
            [30.00, 49.80],
            [29.80, 50.00],
            [29.60, 50.20],
            [29.40, 50.40],
            [29.20, 50.60],
            [29.00, 50.80],
            [28.80, 51.00],
            [28.60, 51.20],
            [28.40, 51.40],
            [28.20, 51.60],
            [28.00, 51.80],
            [27.80, 52.00],
            [27.60, 52.20],
            [27.40, 52.40],
            [27.20, 52.60],
            [27.00, 52.80],
            [26.80, 53.00],
            [26.60, 53.20],
            [26.40, 53.40],
            [26.20, 53.60],
            [26.00, 53.80],
            [25.80, 54.00],
            [25.60, 54.20],
            [25.40, 54.40],
            [25.20, 54.60],
            [25.00, 54.80],
            [24.80, 55.00],
            [24.60, 55.20],
            [24.40, 55.40],
            [24.20, 55.60],
            [24.00, 55.80],
            [23.80, 56.00],
            [23.60, 56.20],
            [23.40, 56.40],
            [23.20, 56.60],
            [23.00, 56.80],
            [22.80, 57.00],
            [22.60, 57.20],
            [22.40, 57.40],
            [22.20, 57.60],
            [22.00, 57.80],
            [21.80, 58.00],
            [21.60, 58.20],
            [21.40, 58.40],
            [21.20, 58.60],
            [21.00, 58.80],
            [20.80, 59.00],
            [20.60, 59.20],
            [20.40, 59.40],
            [20.20, 59.60],
            [20.00, 59.80],
            [19.80, 60.00],
            [19.60, 60.20],
            [19.40, 60.40],
            [19.20, 60.60],
            [19.00, 60.80],
            [18.80, 61.00],
            [18.60, 61.20],
            [18.40, 61.40],
            [18.20, 61.60],
            [18.00, 61.80],
            [17.80, 62.00],
            [17.60, 62.20],
            [17.40, 62.40],
            [17.20, 62.60],
            [17.00, 62.80],
            [16.80, 63.00],
            [16.60, 63.20],
            [16.40, 63.40],
            [16.20, 63.60],
            [16.00, 63.80],
            [15.80, 64.00],
            [15.60, 64.20],
            [15.40, 64.40],
            [15.20, 64.60],
            [15.00, 64.80],
            [14.80, 65.00],
            [14.60, 65.20],
            [14.40, 65.40],
            [14.20, 65.60],
            [14.00, 65.80],
            [13.80, 66.00],
            [13.60, 66.20],
            [13.40, 66.40],
            [13.20, 66.60],
            [13.00, 66.80],
            [12.80, 67.00],
            [12.60, 67.20],
            [12.40, 67.40],
            [12.20, 67.60],
            [12.00, 67.80],
            [11.80, 68.00],
            [11.60, 68.20],
            [11.40, 68.40],
            [11.20, 68.60],
            [11.00, 68.80],
            [10.80, 69.00],
            [10.60, 69.20],
            [10.40, 69.40],
            [10.20, 69.60],
            [10.00, 69.80],
            [9.80, 70.00],
            [9.60, 70.20],
            [9.40, 70.40],
            [9.20, 70.60],
            [9.00, 70.80],
            [8.80, 71.00],
            [8.60, 71.20],
            [8.40, 71.40],
            [8.20, 71.60],
            [8.00, 71.80],
            [7.80, 72.00],
            [7.60, 72.20],
            [7.40, 72.40],
            [7.20, 72.60],
            [7.00, 72.80],
            [6.80, 73.00],
            [6.60, 73.20],
            [6.40, 73.40],
            [6.20, 73.60],
            [6.00, 73.80],
            [5.80, 74.00],
            [5.60, 74.20],
            [5.40, 74.40],
            [5.20, 74.60],
            [5.00, 74.80],
            [4.80, 75.00],
            [4.60, 75.20],
            [4.40, 75.40],
            [4.20, 75.60],
            [4.00, 75.80],
            [3.80, 76.00],
            [3.60, 76.20],
            [3.40, 76.40],
            [3.20, 76.60],
            [3.00, 76.80],
            [2.80, 77.00],
            [2.60, 77.20],
            [2.40, 77.40],
            [2.20, 77.60],
            [2.00, 77.80],
            [1.80, 78.00],
            [1.60, 78.20],
            [1.40, 78.40],
            [1.20, 78.60],
            [1.00, 78.80],
            [0.80, 79.00],
            [0.60, 79.20],
            [0.40, 79.40],
            [0.20, 79.60],
            [0.00, 79.80],
            [-0.20, 80.00],
            [-0.40, 80.20],
            [-0.60, 80.40],
            [-0.80, 80.60],
            [-1.00, 80.80],
            [-1.20, 81.00],
            [-1.40, 81.20],
            [-1.60, 81.40],
            [-1.80, 81.60],
            [-2.00, 81.80],
            [-2.20, 82.00],
            [-2.40, 82.20],
            [-2.60, 82.40],
            [-2.80, 82.60],
            [-3.00, 82.80],
            [-3.20, 83.00],
            [-3.40, 83.20],
            [-3.60, 83.40],
            [-3.80, 83.60],
            [-4.00, 83.80],
            [-4.20, 84.00],
            [-4.40, 84.20],
            [-4.60, 84.40],
            [-4.80, 84.60],
            [-5.00, 84.80],
            [-5.20, 85.00],
            [-5.40, 85.20],
            [-5.60, 85.40],
            [-5.80, 85.60],
            [-6.00, 85.80],
            [-6.20, 86.00],
            [-6.40, 86.20],
            [-6.60, 86.40],
            [-6.80, 86.60],
            [-7.00, 86.80],
            [-7.20, 87.00],
            [-7.40, 87.20],
            [-7.60, 87.40],
            [-7.80, 87.60],
            [-8.00, 87.80],
            [-8.20, 88.00],
            [-8.40, 88.20],
            [-8.60, 88.40],
            [-8.80, 88.60],
            [-9.00, 88.80],
            [-9.20, 89.00],
            [-9.40, 89.20],
            [-9.60, 89.40],
            [-9.80, 89.60],
            [-10.00, 89.80],
            [-10.20, 90.00],
            [-10.40, 90.20],
            [-10.60, 90.40],
            [-10.80, 90.60],
            [-11.00, 90.80],
            [-11.20, 91.00],
            [-11.40, 91.20],
            [-11.60, 91.40],
            [-11.80, 91.60],
            [-12.00, 91.80],
            [-12.20, 92.00],
            [-12.40, 92.20],
            [-12.60, 92.40],
            [-12.80, 92.60],
            [-13.00, 92.80],
            [-13.20, 93.00],
            [-13.40, 93.20],
            [-13.60, 93.40],
            [-13.80, 93.60],
            [-14.00, 93.80],
            [-14.20, 94.00],
            [-14.40, 94.20],
            [-14.60, 94.40],
            [-14.80, 94.60],
            [-15.00, 94.80],
            [-15.20, 95.00],
            [-15.40, 95.20],
            [-15.60, 95.40],
            [-15.80, 95.60],
            [-16.00, 95.80],
            [-16.20, 96.00],
            [-16.40, 96.20],
            [-16.60, 96.40],
            [-16.80, 96.60],
            [-17.00, 96.80],
            [-17.20, 97.00],
            [-17.40, 97.20],
            [-17.60, 97.40],
            [-17.80, 97.60],
            [-18.00, 97.80],
            [-18.20, 98.00],
            [-18.40, 98.20],
            [-18.60, 98.40],
            [-18.80, 98.60],
            [-19.00, 98.80],
            [-19.20, 99.00],
            [-19.40, 99.20],
            [-19.60, 99.40],
            [-19.80, 99.60],
            [-20.00, 99.80],
            [-20.20, 100.00],
            [-20.40, 100.20],
            [-20.60, 100.40],
            [-20.80, 100.60],
            [-21.00, 100.80],
            [-21.20, 101.00],
            [-21.40, 101.20],
            [-21.60, 101.40],
            [-21.80, 101.60],
            [-22.00, 101.80],
            [-22.20, 102.00],
            [-22.40, 102.20],
            [-22.60, 102.40],
            [-22.80, 102.60],
            [-23.00, 102.80],
            [-23.20, 103.00],
            [-23.40, 103.20],
            [-23.60, 103.40],
            [-23.80, 103.60],
            [-24.00, 103.80],
            [-24.20, 104.00],
            [-24.40, 104.20],
            [-24.60, 104.40],
            [-24.80, 104.60],
            [-25.00, 104.80],
            [-25.20, 105.00],
            [-25.40, 105.20],
            [-25.60, 105.40],
            [-25.80, 105.60],
            [-26.00, 105.80],
            [-26.20, 106.00],
            [-26.40, 106.20],
            [-26.60, 106.40],
            [-26.80, 106.60],
            [-27.00, 106.80],
            [-27.20, 107.00],
            [-27.40, 107.20],
            [-27.60, 107.40],
            [-27.80, 107.60],
            [-28.00, 107.80],
            [-28.20, 108.00],
            [-28.40, 108.20],
            [-28.60, 108.40],
            [-28.80, 108.60],
            [-29.00, 108.80],
            [-29.20, 109.00],
            [-29.40, 109.20],
            [-29.60, 109.40],
            [-29.80, 109.60],
            [-30.00, 109.80],
            [-30.20, 110.00],
            [-30.40, 110.20],
            [-30.60, 110.40],
            [-30.80, 110.60],
            [-31.00, 110.80],
            [-31.20, 111.00],
            [-31.40, 111.20],
            [-31.60, 111.40],
            [-31.80, 111.60],
            [-32.00, 111.80],
            [-32.20, 112.00],
            [-32.40, 112.20],
            [-32.60, 112.40],
            [-32.80, 112.60],
            [-33.00, 112.80],
            [-33.20, 113.00],
            [-33.40, 113.20],
            [-33.60, 113.40],
            [-33.80, 113.60],
            [-34.00, 113.80],
            [-34.20, 114.00],
            [-34.40, 114.20],
            [-34.60, 114.40],
            [-34.80, 114.60],
            [-35.00, 114.80],
            [-35.20, 115.00],
            [-35.40, 115.20],
            [-35.60, 115.40],
            [-35.80, 115.60],
            [-36.00, 115.80],
            [-36.20, 116.00],
            [-36.40, 116.20],
            [-36.60, 116.40],
            [-36.80, 116.60],
            [-37.00, 116.80],
            [-37.20, 117.00],
            [-37.40, 117.20],
            [-37.60, 117.40],
            [-37.80, 117.60],
            [-38.00, 117.80],
            [-38.20, 118.00],
            [-38.40, 118.20],
            [-38.60, 118.40],
            [-38.80, 118.60],
            [-39.00, 118.80],
            [-39.20, 119.00],
            [-39.40, 119.20],
            [-39.60, 119.40],
            [-39.80, 119.60],
            [-40.00, 119.80],
            [-40.20, 120.00],
            [-40.40, 120.20],
            [-40.60, 120.40],
            [-40.80, 120.60],
            [-41.00, 120.80],
            [-41.20, 121.00],
            [-41.40, 121.20],
            [-41.60, 121.40],
            [-41.80, 121.60],
            [-42.00, 121.80],
            [-42.20, 122.00],
            [-42.40, 122.20],
            [-42.60, 122.40],
            [-42.80, 122.60],
            [-43.00, 122.80],
            [-43.20, 123.00],
            [-43.40, 123.20],
            [-43.60, 123.40],
            [-43.80, 123.60],
            [-44.00, 123.80],
            [-44.20, 124.00],
            [-44.40, 124.20],
            [-44.60, 124.40],
            [-44.80, 124.60],
            [-45.00, 124.80],
            [-45.20, 125.00],
            [-45.40, 125.20],
            [-45.60, 125.40],
            [-45.80, 125.60],
            [-46.00, 125.80],
            [-46.20, 126.00],
            [-46.40, 126.20],
            [-46.60, 126.40],
            [-46.80, 126.60],
            [-47.00, 126.80],
            [-47.20, 127.00],
            [-47.40, 127.20],
            [-47.60, 127.40],
            [-47.80, 127.60],
            [-48.00, 127.80],
            [-48.20, 128.00],
            [-48.40, 128.20],
            [-48.60, 128.40],
            [-48.80, 128.60],
            [-49.00, 128.80],
            [-49.20, 129.00],
            [-49.40, 129.20],
            [-49.60, 129.40],
            [-49.80, 129.60],
            [-50.00, 129.80],
            [-50.20, 130.00],
            [-50.40, 130.20],
            [-50.60, 130.40],
            [-50.80, 130.60],
            [-51.00, 130.80],
            [-51.20, 131.00],
            [-51.40, 131.20],
            [-51.60, 131.40],
            [-51.80, 131.60],
            [-52.00, 131.80],
            [-52.20, 132.00],
            [-52.40, 132.20],
            [-52.60, 132.40],
            [-52.80, 132.60],
            [-53.00, 132.80],
            [-53.20, 133.00],
            [-53.40, 133.20],
            [-53.60, 133.40],
            [-53.80, 133.60],
            [-54.00, 133.80],
            [-54.20, 134.00],
            [-54.40, 134.20],
            [-54.60, 134.40],
            [-54.80, 134.60],
            [-55.00, 134.80],
            [-55.20, 135.00],
            [-55.40, 135.20],
            [-55.60, 135.40],
            [-55.80, 135.60],
            [-56.00, 135.80],
            [-56.20, 136.00],
            [-56.40, 136.20],
            [-56.60, 136.40],
            [-56.80, 136.60],
            [-57.00, 136.80],
            [-57.20, 137.00],
            [-57.40, 137.20],
            [-57.60, 137.40],
            [-57.80, 137.60],
            [-58.00, 137.80],
            [-58.20, 138.00],
            [-58.40, 138.20],
            [-58.60, 138.40],
            [-58.80, 138.60],
            [-59.00, 138.80],
            [-59.20, 139.00],
            [-59.40, 139.20],
            [-59.60, 139.40],
            [-59.80, 139.60],
            [-60.00, 139.80],
            [-60.20, 140.00],
            [-60.40, 140.20],
            [-60.60, 140.40],
            [-60.80, 140.60],
            [-61.00, 140.80],
            [-61.20, 141.00],
            [-61.40, 141.20],
            [-61.60, 141.40],
            [-61.80, 141.60],
            [-62.00, 141.80],
            [-62.20, 142.00],
            [-62.40, 142.20],
            [-62.60, 142.40],
            [-62.80, 142.60],
            [-63.00, 142.80],
            [-63.20, 143.00],
            [-63.40, 143.20],
            [-63.60, 143.40],
            [-63.80, 143.60],
            [-64.00, 143.80],
            [-64.20, 144.00],
            [-64.40, 144.20],
            [-64.60, 144.40],
            [-64.80, 144.60],
            [-65.00, 144.80],
            [-65.20, 145.00],
            [-65.40, 145.20],
            [-65.60, 145.40],
            [-65.80, 145.60],
            [-66.00, 145.80],
            [-66.20, 146.00],
            [-66.40, 146.20],
            [-66.60, 146.40],
            [-66.80, 146.60],
            [-67.00, 146.80],
            [-67.20, 147.00],
            [-67.40, 147.20],
            [-67.60, 147.40],
            [-67.80, 147.60],
            [-68.00, 147.80],
            [-68.20, 148.00],
            [-68.40, 148.20],
            [-68.60, 148.40],
            [-68.80, 148.60],
            [-69.00, 148.80],
            [-69.20, 149.00],
            [-69.40, 149.20],
            [-69.60, 149.40],
            [-69.80, 149.60],
            [-70.00, 149.80],
            [-70.20, 150.00],
            [-70.40, 150.20],
            [-70.60, 150.40],
            [-70.80, 150.60],
            [-71.00, 150.80],
            [-71.20, 151.00],
            [-71.40, 151.20],
            [-71.60, 151.40],
            [-71.80, 151.60],
            [-72.00, 151.80],
            [-72.20, 152.00],
            [-72.40, 152.20],
            [-72.60, 152.40],
            [-72.80, 152.60],
            [-73.00, 152.80],
            [-73.20, 153.00],
            [-73.40, 153.20],
            [-73.60, 153.40],
            [-73.80, 153.60],
            [-74.00, 153.80],
            [-74.20, 154.00],
            [-74.40, 154.20],
            [-74.60, 154.40],
            [-74.80, 154.60],
            [-75.00, 154.80],
            [-75.20, 155.00],
            [-75.40, 155.20],
            [-75.60, 155.40],
            [-75.80, 155.60],
            [-76.00, 155.80],
            [-76.20, 156.00],
            [-76.40, 156.20],
            [-76.60, 156.40],
            [-76.80, 156.60],
            [-77.00, 156.80],
            [-77.20, 157.00],
            [-77.40, 157.20],
            [-77.60, 157.40],
            [-77.80, 157.60],
            [-78.00, 157.80],
            [-78.20, 158.00],
            [-78.40, 158.20],
            [-78.60, 158.40],
            [-78.80, 158.60],
            [-79.00, 158.80],
            [-79.20, 159.00],
            [-79.40, 159.20],
            [-79.60, 159.40],
            [-79.80, 159.60],
            [-80.00, 159.80],
            [-80.20, 160.00],
            [-80.40, 160.20],
            [-80.60, 160.40],
            [-80.80, 160.60],
            [-81.00, 160.80],
            [-81.20, 161.00],
            [-81.40, 161.20],
            [-81.60, 161.40],
            [-81.80, 161.60],
            [-82.00, 161.80],
            [-82.20, 162.00],
            [-82.40, 162.20],
            [-82.60, 162.40],
            [-82.80, 162.60],
            [-83.00, 162.80],
            [-83.20, 163.00],
            [-83.40, 163.20],
            [-83.60, 163.40],
            [-83.80, 163.60],
            [-84.00, 163.80],
            [-84.20, 164.00],
            [-84.40, 164.20],
            [-84.60, 164.40],
            [-84.80, 164.60],
            [-85.00, 164.80],
            [-85.20, 165.00],
            [-85.40, 165.20],
            [-85.60, 165.40],
            [-85.80, 165.60],
            [-86.00, 165.80],
            [-86.20, 166.00],
            [-86.40, 166.20],
            [-86.60, 166.40],
            [-86.80, 166.60],
            [-87.00, 166.80],
            [-87.20, 167.00],
            [-87.40, 167.20],
            [-87.60, 167.40],
            [-87.80, 167.60],
            [-88.00, 167.80],
            [-88.20, 168.00],
            [-88.40, 168.20],
            [-88.60, 168.40],
            [-88.80, 168.60],
            [-89.00, 168.80],
            [-89.20, 169.00],
            [-89.40, 169.20],
            [-89.60, 169.40],
            [-89.80, 169.60],
            [-90.00, 169.80],
            [-90.20, 170.00],
            [-90.40, 170.20],
            [-90.60, 170.40],
            [-90.80, 170.60],
            [-91.00, 170.80],
            [-91.20, 171.00],
            [-91.40, 171.20],
            [-91.60, 171.40],
            [-91.80, 171.60],
            [-92.00, 171.80],
            [-92.20, 172.00],
            [-92.40, 172.20],
            [-92.60, 172.40],
            [-92.80, 172.60],
            [-93.00, 172.80],
            [-93.20, 173.00],
            [-93.40, 173.20],
            [-93.60, 173.40],
            [-93.80, 173.60],
            [-94.00, 173.80],
            [-94.20, 174.00],
            [-94.40, 174.20],
            [-94.60, 174.40],
            [-94.80, 174.60],
            [-95.00, 174.80],
            [-95.20, 175.00],
            [-95.40, 175.20],
            [-95.60, 175.40],
            [-95.80, 175.60],
            [-96.00, 175.80],
            [-96.20, 176.00],
            [-96.40, 176.20],
            [-96.60, 176.40],
            [-96.80, 176.60],
            [-97.00, 176.80],
            [-97.20, 177.00],
            [-97.40, 177.20],
            [-97.60, 177.40],
            [-97.80, 177.60],
            [-98.00, 177.80],
            [-98.20, 178.00],
            [-98.40, 178.20],
            [-98.60, 178.40],
            [-98.80, 178.60],
            [-99.00, 178.80],
            [-99.20, 179.00],
            [-99.40, 179.20],
            [-99.60, 179.40],
            [-99.80, 179.60],
            [-100.00, 179.80],
            [-100.20, 180.00],
            [51.50, 24.00]
          ]
        ]
      }
    }
  ]
}
